{"fetched_at":"2026-03-29T16:36:15Z","count":15609,"tles":[{"name":"STARLINK-5467","line1":"1 55660U 23021AJ  26087.81678213 -.00081409  00000+0 -70025-2 0  9998","line2":"2 55660  69.9985 116.0779 0004779 115.9764 244.1888 14.97721806172157","category":"Starlink"}]}