{
  "norad_id": 55660,
  "name": "STARLINK-5467",
  "history": [
    {
      "epoch": "2026-03-28T19:36:09.976032",
      "apogee_km": 577.259922027336,
      "perigee_km": 570.614712270547,
      "latitude_deg": 31.167627237255424,
      "longitude_deg": -175.588915519882,
      "semi_major_axis_km": 6952.074317148941,
      "eccentricity": 0.00047793,
      "inclination_deg": 69.9985,
      "raan_deg": 116.0779,
      "arg_perigee_deg": 115.9764,
      "mean_anomaly_deg": 244.1888,
      "mean_motion_rev_day": 14.97721806
    }
  ]
}